start=new Date('2022-09-11T00:00:00.000Z').valueOf();
sats=[{"BSTAR":"-0.00005402500000","PERIOD":"95.437","TLE_LINE1":"1 50820U 22001T   22253.83429398 -.00001148  00000-0 -54025-4 0  9996","REV_AT_EPOCH":"3779","CENTER_NAME":"EARTH","NORAD_CAT_ID":"50820","MEAN_ANOMALY":"307.0015","COUNTRY_CODE":"US","OBJECT_NAME":"STARLINK-3339","RA_OF_ASC_NODE":"136.6701","MEAN_MOTION":"15.08841409","PERIAPSIS":"538.333","FILE":"3567798","EPOCH":"2022-09-10T20:01:22.999872","SEMIMAJOR_AXIS":"6917.876","RCS_SIZE":"LARGE","MEAN_ELEMENT_THEORY":"SGP4","ECCENTRICITY":"0.00020360","EPHEMERIS_TYPE":"0","MEAN_MOTION_DOT":"-0.00001148","INCLINATION":"53.2173","OBJECT_TYPE":"PAYLOAD","DECAY_DATE":null,"ELEMENT_SET_NO":"999","APOAPSIS":"541.150","OBJECT_ID":"2022-001T","SITE":"AFETR","CLASSIFICATION_TYPE":"U","REF_FRAME":"TEME","TLE_LINE2":"2 50820  53.2173 136.6701 0002036  53.1163 307.0015 15.08841409 37794","TIME_SYSTEM":"UTC","LAUNCH_DATE":"2022-01-06","MEAN_MOTION_DDOT":"0.0000000000000","ARG_OF_PERICENTER":"53.1163","GP_ID":"212270064"},{"MEAN_MOTION":"15.08836865","COUNTRY_CODE":"US","MEAN_ANOMALY":"301.5369","OBJECT_NAME":"STARLINK-3346","RA_OF_ASC_NODE":"136.7343","NORAD_CAT_ID":"50821","TLE_LINE1":"1 50821U 22001U   22253.81957183  .00000824  00000-0  69843-4 0  9995","REV_AT_EPOCH":"3779","CENTER_NAME":"EARTH","PERIOD":"95.438","BSTAR":"0.00006984300000","EPHEMERIS_TYPE":"0","ECCENTRICITY":"0.00018030","MEAN_ELEMENT_THEORY":"SGP4","RCS_SIZE":"LARGE","EPOCH":"2022-09-10T19:40:11.006112","SEMIMAJOR_AXIS":"6917.890","FILE":"3567798","PERIAPSIS":"538.508","ELEMENT_SET_NO":"999","APOAPSIS":"541.002","DECAY_DATE":null,"OBJECT_TYPE":"PAYLOAD","MEAN_MOTION_DOT":"0.00000824","INCLINATION":"53.2147","MEAN_MOTION_DDOT":"0.0000000000000","ARG_OF_PERICENTER":"58.5799","GP_ID":"212271315","LAUNCH_DATE":"2022-01-06","REF_FRAME":"TEME","TIME_SYSTEM":"UTC","TLE_LINE2":"2 50821  53.2147 136.7343 0001803  58.5799 301.5369 15.08836865 37795","CLASSIFICATION_TYPE":"U","SITE":"AFETR","OBJECT_ID":"2022-001U"},{"COUNTRY_CODE":"US","MEAN_ANOMALY":"301.6339","RA_OF_ASC_NODE":"136.7080","OBJECT_NAME":"STARLINK-3343","MEAN_MOTION":"15.08841719","BSTAR":"0.00003391600000","PERIOD":"95.437","TLE_LINE1":"1 50822U 22001V   22253.82693087  .00000252  00000-0  33916-4 0  9994","REV_AT_EPOCH":"3779","CENTER_NAME":"EARTH","NORAD_CAT_ID":"50822","MEAN_ELEMENT_THEORY":"SGP4","RCS_SIZE":"LARGE","ECCENTRICITY":"0.00016900","EPHEMERIS_TYPE":"0","PERIAPSIS":"538.571","FILE":"3567798","EPOCH":"2022-09-10T19:50:46.827168","SEMIMAJOR_AXIS":"6917.875","DECAY_DATE":null,"ELEMENT_SET_NO":"999","APOAPSIS":"540.909","MEAN_MOTION_DOT":"0.00000252","INCLINATION":"53.2170","OBJECT_TYPE":"PAYLOAD","LAUNCH_DATE":"2022-01-06","MEAN_MOTION_DDOT":"0.0000000000000","ARG_OF_PERICENTER":"58.4818","GP_ID":"212271566","SITE":"AFETR","OBJECT_ID":"2022-001V","CLASSIFICATION_TYPE":"U","REF_FRAME":"TEME","TLE_LINE2":"2 50822  53.2170 136.7080 0001690  58.4818 301.6339 15.08841719 37797","TIME_SYSTEM":"UTC"},{"ECCENTRICITY":"0.00015330","RCS_SIZE":"LARGE","MEAN_ELEMENT_THEORY":"SGP4","EPHEMERIS_TYPE":"0","FILE":"3567798","PERIAPSIS":"538.672","SEMIMAJOR_AXIS":"6917.867","EPOCH":"2022-09-10T20:38:29.202144","MEAN_MOTION":"15.08844338","OBJECT_NAME":"STARLINK-3334","RA_OF_ASC_NODE":"136.5485","COUNTRY_CODE":"US","MEAN_ANOMALY":"288.4137","CENTER_NAME":"EARTH","TLE_LINE1":"1 50823U 22001W   22253.86006021 -.00001131  00000-0 -52958-4 0  9991","REV_AT_EPOCH":"3780","PERIOD":"95.437","BSTAR":"-0.00005295800000","NORAD_CAT_ID":"50823","ARG_OF_PERICENTER":"71.7022","GP_ID":"212270314","MEAN_MOTION_DDOT":"0.0000000000000","LAUNCH_DATE":"2022-01-06","CLASSIFICATION_TYPE":"U","SITE":"AFETR","OBJECT_ID":"2022-001W","TLE_LINE2":"2 50823  53.2190 136.5485 0001533  71.7022 288.4137 15.08844338 37808","TIME_SYSTEM":"UTC","REF_FRAME":"TEME","DECAY_DATE":null,"APOAPSIS":"540.793","ELEMENT_SET_NO":"999","INCLINATION":"53.2190","MEAN_MOTION_DOT":"-0.00001131","OBJECT_TYPE":"PAYLOAD"},{"PERIAPSIS":"538.784","FILE":"3567798","SEMIMAJOR_AXIS":"6917.885","EPOCH":"2022-09-10T19:45:28.375776","MEAN_ELEMENT_THEORY":"SGP4","RCS_SIZE":"LARGE","ECCENTRICITY":"0.00013960","EPHEMERIS_TYPE":"0","BSTAR":"0.00004007300000","PERIOD":"95.438","CENTER_NAME":"EARTH","TLE_LINE1":"1 50824U 22001X   22253.82324509  .00000350  00000-0  40073-4 0  9997","REV_AT_EPOCH":"3779","NORAD_CAT_ID":"50824","OBJECT_NAME":"STARLINK-3340","RA_OF_ASC_NODE":"136.7181","MEAN_ANOMALY":"287.8522","COUNTRY_CODE":"US","MEAN_MOTION":"15.08838538","OBJECT_ID":"2022-001X","SITE":"AFETR","CLASSIFICATION_TYPE":"U","TIME_SYSTEM":"UTC","TLE_LINE2":"2 50824  53.2170 136.7181 0001396  72.2623 287.8522 15.08838538 37796","REF_FRAME":"TEME","LAUNCH_DATE":"2022-01-06","GP_ID":"212270564","ARG_OF_PERICENTER":"72.2623","MEAN_MOTION_DDOT":"0.0000000000000","INCLINATION":"53.2170","MEAN_MOTION_DOT":"0.00000350","OBJECT_TYPE":"PAYLOAD","DECAY_DATE":null,"APOAPSIS":"540.716","ELEMENT_SET_NO":"999"},{"TIME_SYSTEM":"UTC","TLE_LINE2":"2 50825  53.2166 136.6819 0001708  72.3023 287.8156 15.08850634 37795","REF_FRAME":"TEME","SITE":"AFETR","OBJECT_ID":"2022-001Y","CLASSIFICATION_TYPE":"U","LAUNCH_DATE":"2022-01-06","GP_ID":"212270816","ARG_OF_PERICENTER":"72.3023","MEAN_MOTION_DDOT":"0.0000000000000","OBJECT_TYPE":"PAYLOAD","INCLINATION":"53.2166","MEAN_MOTION_DOT":"-0.00001103","APOAPSIS":"540.894","ELEMENT_SET_NO":"999","DECAY_DATE":null,"SEMIMAJOR_AXIS":"6917.848","EPOCH":"2022-09-10T19:56:04.741152","PERIAPSIS":"538.531","FILE":"3567798","EPHEMERIS_TYPE":"0","MEAN_ELEMENT_THEORY":"SGP4","RCS_SIZE":"LARGE","ECCENTRICITY":"0.00017080","NORAD_CAT_ID":"50825","BSTAR":"-0.00005120500000","PERIOD":"95.437","CENTER_NAME":"EARTH","REV_AT_EPOCH":"3779","TLE_LINE1":"1 50825U 22001Y   22253.83061043 -.00001103  00000-0 -51205-4 0  9998","OBJECT_NAME":"STARLINK-3332","RA_OF_ASC_NODE":"136.6819","COUNTRY_CODE":"US","MEAN_ANOMALY":"287.8156","MEAN_MOTION":"15.08850634"},{"ARG_OF_PERICENTER":"61.3297","GP_ID":"212271067","MEAN_MOTION_DDOT":"0.0000000000000","LAUNCH_DATE":"2022-01-06","TIME_SYSTEM":"UTC","TLE_LINE2":"2 50826  53.2175 136.7640 0001806  61.3297 298.7877 15.08855905 37796","REF_FRAME":"TEME","CLASSIFICATION_TYPE":"U","SITE":"AFETR","OBJECT_ID":"2022-001Z","APOAPSIS":"540.946","ELEMENT_SET_NO":"999","DECAY_DATE":null,"OBJECT_TYPE":"PAYLOAD","INCLINATION":"53.2175","MEAN_MOTION_DOT":"-0.00000511","EPHEMERIS_TYPE":"0","ECCENTRICITY":"0.00018060","RCS_SIZE":"LARGE","MEAN_ELEMENT_THEORY":"SGP4","SEMIMAJOR_AXIS":"6917.832","EPOCH":"2022-09-10T19:24:17.163936","FILE":"3567798","PERIAPSIS":"538.447","MEAN_MOTION":"15.08855905","RA_OF_ASC_NODE":"136.7640","OBJECT_NAME":"STARLINK-3337","MEAN_ANOMALY":"298.7877","COUNTRY_CODE":"US","NORAD_CAT_ID":"50826","CENTER_NAME":"EARTH","REV_AT_EPOCH":"3779","TLE_LINE1":"1 50826U 22001Z   22253.80853199 -.00000511  00000-0 -14022-4 0  9995","BSTAR":"-0.00001402200000","PERIOD":"95.437"},{"LAUNCH_DATE":"2022-01-06","ARG_OF_PERICENTER":"49.4216","GP_ID":"212269815","MEAN_MOTION_DDOT":"0.0000000000000","TLE_LINE2":"2 50827  53.2157 136.6366 0001566  49.4216 310.6912 15.08843820 37799","TIME_SYSTEM":"UTC","REF_FRAME":"TEME","OBJECT_ID":"2022-001AA","SITE":"AFETR","CLASSIFICATION_TYPE":"U","APOAPSIS":"540.817","ELEMENT_SET_NO":"999","DECAY_DATE":null,"OBJECT_TYPE":"PAYLOAD","INCLINATION":"53.2157","MEAN_MOTION_DOT":"0.00000226","EPHEMERIS_TYPE":"0","RCS_SIZE":"LARGE","MEAN_ELEMENT_THEORY":"SGP4","ECCENTRICITY":"0.00015660","SEMIMAJOR_AXIS":"6917.869","EPOCH":"2022-09-10T20:11:58.706016","PERIAPSIS":"538.650","FILE":"3567798","RA_OF_ASC_NODE":"136.6366","OBJECT_NAME":"STARLINK-3329","COUNTRY_CODE":"US","MEAN_ANOMALY":"310.6912","MEAN_MOTION":"15.08843820","NORAD_CAT_ID":"50827","PERIOD":"95.437","BSTAR":"0.00003227400000","CENTER_NAME":"EARTH","TLE_LINE1":"1 50827U 22001AA  22253.84165169  .00000226  00000-0  32274-4 0  9993","REV_AT_EPOCH":"3779"},{"LAUNCH_DATE":"2022-01-06","MEAN_MOTION_DDOT":"0.0000000000000","ARG_OF_PERICENTER":"58.9618","GP_ID":"212270065","REF_FRAME":"TEME","TLE_LINE2":"2 50828  53.2170 136.6508 0001825  58.9618 301.1553 15.08839924 37642","TIME_SYSTEM":"UTC","OBJECT_ID":"2022-001AB","SITE":"AFETR","CLASSIFICATION_TYPE":"U","ELEMENT_SET_NO":"999","APOAPSIS":"541.008","DECAY_DATE":null,"OBJECT_TYPE":"PAYLOAD","MEAN_MOTION_DOT":"-0.00000621","INCLINATION":"53.2170","EPHEMERIS_TYPE":"0","MEAN_ELEMENT_THEORY":"SGP4","RCS_SIZE":"LARGE","ECCENTRICITY":"0.00018250","EPOCH":"2022-09-10T20:08:03.469920","SEMIMAJOR_AXIS":"6917.881","PERIAPSIS":"538.483","FILE":"3567798","COUNTRY_CODE":"US","MEAN_ANOMALY":"301.1553","OBJECT_NAME":"STARLINK-3290","RA_OF_ASC_NODE":"136.6508","MEAN_MOTION":"15.08839924","NORAD_CAT_ID":"50828","PERIOD":"95.438","BSTAR":"-0.00002091900000","REV_AT_EPOCH":"3764","TLE_LINE1":"1 50828U 22001AB  22253.83892905 -.00000621  00000-0 -20919-4 0  9992","CENTER_NAME":"EARTH"},{"CLASSIFICATION_TYPE":"U","SITE":"AFETR","OBJECT_ID":"2022-001AC","TLE_LINE2":"2 50829  53.2172 136.5963 0001845  58.3884 301.7288 15.08858787 37795","TIME_SYSTEM":"UTC","REF_FRAME":"TEME","ARG_OF_PERICENTER":"58.3884","GP_ID":"212271316","MEAN_MOTION_DDOT":"0.0000000000000","LAUNCH_DATE":"2022-01-06","INCLINATION":"53.2172","MEAN_MOTION_DOT":"-0.00007018","OBJECT_TYPE":"PAYLOAD","DECAY_DATE":null,"APOAPSIS":"540.964","ELEMENT_SET_NO":"999","FILE":"3567798","PERIAPSIS":"538.412","SEMIMAJOR_AXIS":"6917.823","EPOCH":"2022-09-10T20:22:34.394016","ECCENTRICITY":"0.00018450","RCS_SIZE":"LARGE","MEAN_ELEMENT_THEORY":"SGP4","EPHEMERIS_TYPE":"0","CENTER_NAME":"EARTH","REV_AT_EPOCH":"3779","TLE_LINE1":"1 50829U 22001AC  22253.84900919 -.00007018  00000-0 -42304-3 0  9997","PERIOD":"95.436","BSTAR":"-0.00042304000000","NORAD_CAT_ID":"50829","MEAN_MOTION":"15.08858787","RA_OF_ASC_NODE":"136.5963","OBJECT_NAME":"STARLINK-3294","MEAN_ANOMALY":"301.7288","COUNTRY_CODE":"US"}];
